SPAWAR-CAL-R            
1 43776U 18099U   26067.65115975  .00003570  00000+0  25336-3 0  9990
2 43776  97.4524 111.5817 0019701 348.9052  11.1737 15.05212097396878
STARLINK-3190           
1 49766U 21115AU  26068.45620761 -.00001128  00000+0 -52808-4 0  9995
2 49766  53.2153 140.1784 0001390  86.6291 273.4860 15.08838372235648
